{"type": "FeatureCollection", "features": [ {"type": "Feature", "properties": {"norad_id": 41469, "name": "IRNSS-1G", "group": "gnss", "lat": 0.6091049809834583, "lon": -85.7958432811902, "alt_km": 35794.93148775575, "timestamp": "2025-12-20T03:42:47.636088+00:00", "meta": {"OBJECT_NAME": "IRNSS-1G", "OBJECT_ID": "2016-027A", "EPOCH": "2025-12-19T19:00:56.365056", "MEAN_MOTION": 1.00276721, "ECCENTRICITY": 0.0002599, "INCLINATION": 4.7515, "RA_OF_ASC_NODE": 101.9156, "ARG_OF_PERICENTER": 330.7347, "MEAN_ANOMALY": 70.7123, "EPHEMERIS_TYPE": 0, "CLASSIFICATION_TYPE": "U", "NORAD_CAT_ID": 41469, "ELEMENT_SET_NO": 999, "REV_AT_EPOCH": 3538, "BSTAR": 0, "MEAN_MOTION_DOT": -3.13e-06, "MEAN_MOTION_DDOT": 0}, "tle": {"line1": "1 41469U 16027A   25353.79231904 -.00000313  00000+0  00000+0 0  9999", "line2": "2 41469   4.7515 101.9156 0002599 330.7347  70.7123  1.00276721 35388"}}, "geometry": {"type": "Point", "coordinates": [-85.7958432811902, 0.6091049809834583]}}, {"type": "Feature", "properties": {"norad_id": 41549, "name": "GSAT0211 (GALILEO 14)", "group": "gnss", "lat": 13.48123534219432, "lon": 37.02392701187357, "alt_km": 23230.854149473667, "timestamp": "2025-12-20T03:42:47.636101+00:00", "meta": {"OBJECT_NAME": "GSAT0211 (GALILEO 14)", "OBJECT_ID": "2016-030A", "EPOCH": "2025-12-14T00:32:28.498848", "MEAN_MOTION": 1.70473201, "ECCENTRICITY": 0.000407, "INCLINATION": 55.1518, "RA_OF_ASC_NODE": 226.7881, "ARG_OF_PERICENTER": 16.5595, "MEAN_ANOMALY": 343.5367, "EPHEMERIS_TYPE": 0, "CLASSIFICATION_TYPE": "U", "NORAD_CAT_ID": 41549, "ELEMENT_SET_NO": 999, "REV_AT_EPOCH": 5951, "BSTAR": 0, "MEAN_MOTION_DOT": 2.8e-07, "MEAN_MOTION_DDOT": 0}, "tle": {"line1": "1 41549U 16030A   25348.02255207  .00000028  00000+0  00000+0 0  9996", "line2": "2 41549  55.1518 226.7881 0004070  16.5595 343.5367  1.70473201 59512"}}, "geometry": {"type": "Point", "coordinates": [37.02392701187357, 13.48123534219432]}}, {"type": "Feature", "properties": {"norad_id": 41550, "name": "GSAT0210 (GALILEO 13)", "group": "gnss", "lat": 4.467632388517974, "lon": -130.2491166000046, "alt_km": 23223.63942153248, "timestamp": "2025-12-20T03:42:47.636113+00:00", "meta": {"OBJECT_NAME": "GSAT0210 (GALILEO 13)", "OBJECT_ID": "2016-030B", "EPOCH": "2025-12-18T23:20:38.714784", "MEAN_MOTION": 1.70473668, "ECCENTRICITY": 7.917e-05, "INCLINATION": 55.1496, "RA_OF_ASC_NODE": 226.6499, "ARG_OF_PERICENTER": 227.6007, "MEAN_ANOMALY": 132.5002, "EPHEMERIS_TYPE": 0, "CLASSIFICATION_TYPE": "U", "NORAD_CAT_ID": 41550, "ELEMENT_SET_NO": 999, "REV_AT_EPOCH": 5959, "BSTAR": 0, "MEAN_MOTION_DOT": 6.5e-07, "MEAN_MOTION_DDOT": 0}, "tle": {"line1": "1 41550U 16030B   25352.97267031  .00000065  00000+0  00000+0 0  9996", "line2": "2 41550  55.1496 226.6499 0000791 227.6007 132.5002  1.70473668 59599"}}, "geometry": {"type": "Point", "coordinates": [-130.2491166000046, 4.467632388517974]}}, {"type": "Feature", "properties": {"norad_id": 41586, "name": "BEIDOU-2 G7 (C03)", "group": "gnss", "lat": -0.25156670482278337, "lon": -104.86873406080473, "alt_km": 35807.86641633497, "timestamp": "2025-12-20T03:42:47.636126+00:00", "meta": {"OBJECT_NAME": "BEIDOU-2 G7 (C03)", "OBJECT_ID": "2016-037A", "EPOCH": "2025-12-19T15:57:04.317984", "MEAN_MOTION": 1.00271972, "ECCENTRICITY": 0.0005143, "INCLINATION": 1.7733, "RA_OF_ASC_NODE": 67.8469, "ARG_OF_PERICENTER": 2.9481, "MEAN_ANOMALY": 7.4377, "EPHEMERIS_TYPE": 0, "CLASSIFICATION_TYPE": "U", "NORAD_CAT_ID": 41586, "ELEMENT_SET_NO": 999, "REV_AT_EPOCH": 509, "BSTAR": 0, "MEAN_MOTION_DOT": -3.3e-06, "MEAN_MOTION_DDOT": 0}, "tle": {"line1": "1 41586U 16037A   25353.66463331 -.00000330  00000+0  00000+0 0  9996", "line2": "2 41586   1.7733  67.8469 0005143   2.9481   7.4377  1.00271972  5095"}}, "geometry": {"type": "Point", "coordinates": [-104.86873406080473, -0.25156670482278337]}}, {"type": "Feature", "properties": {"norad_id": 41589, "name": "EUTELSAT 117 WEST B (WAAS/PRN 131)", "group": "gnss", "lat": -0.007294566627160045, "lon": 27.70077868290712, "alt_km": 35785.74658182651, "timestamp": "2025-12-20T03:42:47.636138+00:00", "meta": {"OBJECT_NAME": "EUTELSAT 117 WEST B (WAAS/PRN 131)", "OBJECT_ID": "2016-038B", "EPOCH": "2025-12-19T12:07:15.989088", "MEAN_MOTION": 1.00271292, "ECCENTRICITY": 3.33e-05, "INCLINATION": 0.0139, "RA_OF_ASC_NODE": 154.0822, "ARG_OF_PERICENTER": 162.5919, "MEAN_ANOMALY": 196.5118, "EPHEMERIS_TYPE": 0, "CLASSIFICATION_TYPE": "U", "NORAD_CAT_ID": 41589, "ELEMENT_SET_NO": 999, "REV_AT_EPOCH": 3486, "BSTAR": 0, "MEAN_MOTION_DOT": 1.3e-07, "MEAN_MOTION_DDOT": 0}, "tle": {"line1": "1 41589U 16038B   25353.50504617  .00000013  00000+0  00000+0 0  9993", "line2": "2 41589   0.0139 154.0822 0000333 162.5919 196.5118  1.00271292 34862"}}, "geometry": {"type": "Point", "coordinates": [27.70077868290712, -0.007294566627160045]}}, {"type": "Feature", "properties": {"norad_id": 41859, "name": "GSAT0207 (GALILEO 15)", "group": "gnss", "lat": -12.079320355776447, "lon": -65.47409604021216, "alt_km": 23227.848241728294, "timestamp": "2025-12-20T03:42:47.636150+00:00", "meta": {"OBJECT_NAME": "GSAT0207 (GALILEO 15)", "OBJECT_ID": "2016-069A", "EPOCH": "2025-12-19T06:01:13.799424", "MEAN_MOTION": 1.70474539, "ECCENTRICITY": 0.0002355, "INCLINATION": 55.3858, "RA_OF_ASC_NODE": 106.07, "ARG_OF_PERICENTER": 318.8542, "MEAN_ANOMALY": 41.0896, "EPHEMERIS_TYPE": 0, "CLASSIFICATION_TYPE": "U", "NORAD_CAT_ID": 41859, "ELEMENT_SET_NO": 999, "REV_AT_EPOCH": 5633, "BSTAR": 0, "MEAN_MOTION_DOT": -6e-08, "MEAN_MOTION_DDOT": 0}, "tle": {"line1": "1 41859U 16069A   25353.25085416 -.00000006  00000+0  00000+0 0  9993", "line2": "2 41859  55.3858 106.0700 0002355 318.8542  41.0896  1.70474539 56338"}}, "geometry": {"type": "Point", "coordinates": [-65.47409604021216, -12.079320355776447]}}, {"type": "Feature", "properties": {"norad_id": 41860, "name": "GSAT0212 (GALILEO 16)", "group": "gnss", "lat": -52.826130637199846, "lon": 40.582030950028845, "alt_km": 23228.619942033212, "timestamp": "2025-12-20T03:42:47.636161+00:00", "meta": {"OBJECT_NAME": "GSAT0212 (GALILEO 16)", "OBJECT_ID": "2016-069B", "EPOCH": "2025-12-18T12:25:48.697536", "MEAN_MOTION": 1.70474692, "ECCENTRICITY": 0.00020646, "INCLINATION": 55.3831, "RA_OF_ASC_NODE": 106.0857, "ARG_OF_PERICENTER": 21.766, "MEAN_ANOMALY": 338.2025, "EPHEMERIS_TYPE": 0, "CLASSIFICATION_TYPE": "U", "NORAD_CAT_ID": 41860, "ELEMENT_SET_NO": 999, "REV_AT_EPOCH": 5657, "BSTAR": 0, "MEAN_MOTION_DOT": -8e-08, "MEAN_MOTION_DDOT": 0}, "tle": {"line1": "1 41860U 16069B   25352.51792474 -.00000008  00000+0  00000+0 0  9994", "line2": "2 41860  55.3831 106.0857 0002064  21.7660 338.2025  1.70474692 56573"}}, "geometry": {"type": "Point", "coordinates": [40.582030950028845, -52.826130637199846]}}, {"type": "Feature", "properties": {"norad_id": 41861, "name": "GSAT0213 (GALILEO 17)", "group": "gnss", "lat": 44.85884476667014, "lon": 149.3807469474793, "alt_km": 23222.26996024427, "timestamp": "2025-12-20T03:42:47.636175+00:00", "meta": {"OBJECT_NAME": "GSAT0213 (GALILEO 17)", "OBJECT_ID": "2016-069C", "EPOCH": "2025-12-17T17:05:43.699776", "MEAN_MOTION": 1.70474994, "ECCENTRICITY": 0.000259, "INCLINATION": 55.385, "RA_OF_ASC_NODE": 106.1156, "ARG_OF_PERICENTER": 282.1972, "MEAN_ANOMALY": 77.7328, "EPHEMERIS_TYPE": 0, "CLASSIFICATION_TYPE": "U", "NORAD_CAT_ID": 41861, "ELEMENT_SET_NO": 999, "REV_AT_EPOCH": 5642, "BSTAR": 0, "MEAN_MOTION_DOT": -9e-08, "MEAN_MOTION_DDOT": 0}, "tle": {"line1": "1 41861U 16069C   25351.71231134 -.00000009  00000+0  00000+0 0  9998", "line2": "2 41861  55.3850 106.1156 0002590 282.1972  77.7328  1.70474994 56421"}}, "geometry": {"type": "Point", "coordinates": [149.3807469474793, 44.85884476667014]}}, {"type": "Feature", "properties": {"norad_id": 41862, "name": "GSAT0214 (GALILEO 18)", "group": "gnss", "lat": -24.810546535647624, "lon": 87.4389219735694, "alt_km": 23221.877086248754, "timestamp": "2025-12-20T03:42:47.636189+00:00", "meta": {"OBJECT_NAME": "GSAT0214 (GALILEO 18)", "OBJECT_ID": "2016-069D", "EPOCH": "2025-12-17T20:35:58.649280", "MEAN_MOTION": 1.70474854, "ECCENTRICITY": 0.00015422, "INCLINATION": 55.383, "RA_OF_ASC_NODE": 106.1044, "ARG_OF_PERICENTER": 289.1766, "MEAN_ANOMALY": 70.7658, "EPHEMERIS_TYPE": 0, "CLASSIFICATION_TYPE": "U", "NORAD_CAT_ID": 41862, "ELEMENT_SET_NO": 999, "REV_AT_EPOCH": 5655, "BSTAR": 0, "MEAN_MOTION_DOT": -9e-08, "MEAN_MOTION_DDOT": 0}, "tle": {"line1": "1 41862U 16069D   25351.85831770 -.00000009  00000+0  00000+0 0  9996", "line2": "2 41862  55.3830 106.1044 0001542 289.1766  70.7658  1.70474854 56558"}}, "geometry": {"type": "Point", "coordinates": [87.4389219735694, -24.810546535647624]}}, {"type": "Feature", "properties": {"norad_id": 42709, "name": "SES-15 (WAAS/PRN 133)", "group": "gnss", "lat": 0.022019050366683158, "lon": 15.542255736655262, "alt_km": 35787.377616674574, "timestamp": "2025-12-20T03:42:47.636201+00:00", "meta": {"OBJECT_NAME": "SES-15 (WAAS/PRN 133)", "OBJECT_ID": "2017-026A", "EPOCH": "2025-12-19T13:10:06.121344", "MEAN_MOTION": 1.00276643, "ECCENTRICITY": 6.45e-05, "INCLINATION": 0.0184, "RA_OF_ASC_NODE": 341.3465, "ARG_OF_PERICENTER": 214.8839, "MEAN_ANOMALY": 320.5407, "EPHEMERIS_TYPE": 0, "CLASSIFICATION_TYPE": "U", "NORAD_CAT_ID": 42709, "ELEMENT_SET_NO": 999, "REV_AT_EPOCH": 563, "BSTAR": 0, "MEAN_MOTION_DOT": 8.4e-07, "MEAN_MOTION_DDOT": 0}, "tle": {"line1": "1 42709U 17026A   25353.54868196  .00000084  00000+0  00000+0 0  9993", "line2": "2 42709   0.0184 341.3465 0000645 214.8839 320.5407  1.00276643  5637"}}, "geometry": {"type": "Point", "coordinates": [15.542255736655262, 0.022019050366683158]}}]}